{
    "links": {
        "self": "http://www.neowsapp.com/rest/v1/neo/3772998?api_key=iIulBulltgU6a56xZRHN4H3l9WmuAYTsLGpBGhQ2"
    },
    "id": "3772998",
    "neo_reference_id": "3772998",
    "name": "(2017 FB102)",
    "designation": "2017 FB102",
    "nasa_jpl_url": "http://ssd.jpl.nasa.gov/sbdb.cgi?sstr=3772998",
    "absolute_magnitude_h": 26.8,
    "estimated_diameter": {
        "kilometers": {
            "estimated_diameter_min": 0.0116025908,
            "estimated_diameter_max": 0.0259441818
        },
        "meters": {
            "estimated_diameter_min": 11.6025908209,
            "estimated_diameter_max": 25.9441817907
        },
        "miles": {
            "estimated_diameter_min": 0.0072095135,
            "estimated_diameter_max": 0.0161209622
        },
        "feet": {
            "estimated_diameter_min": 38.066244069,
            "estimated_diameter_max": 85.1187093863
        }
    },
    "is_potentially_hazardous_asteroid": false,
    "close_approach_data": [
        {
            "close_approach_date": "2017-03-21",
            "close_approach_date_full": "2017-Mar-21 04:11",
            "epoch_date_close_approach": 1490069460000,
            "relative_velocity": {
                "kilometers_per_second": "8.8724497753",
                "kilometers_per_hour": "31940.8191909256",
                "miles_per_hour": "19846.7829022726"
            },
            "miss_distance": {
                "astronomical": "0.0148996515",
                "lunar": "5.7959644335",
                "kilometers": "2228956.128142305",
                "miles": "1385009.114301609"
            },
            "orbiting_body": "Earth"
        }
    ],
    "orbital_data": {
        "orbit_id": "9",
        "orbit_determination_date": "2019-01-18 07:08:51",
        "first_observation_date": "2017-03-27",
        "last_observation_date": "2017-04-02",
        "data_arc_in_days": 6,
        "observations_used": 33,
        "orbit_uncertainty": "7",
        "minimum_orbit_intersection": ".00631082",
        "jupiter_tisserand_invariant": "3.636",
        "epoch_osculation": "2459000.5",
        "eccentricity": ".5200444979551718",
        "semi_major_axis": "2.019662575339563",
        "inclination": "5.61845199358101",
        "ascending_node_longitude": "179.6786304464723",
        "orbital_period": "1048.374994820481",
        "perihelion_distance": ".9693481653082504",
        "perihelion_argument": "332.9614714217787",
        "aphelion_distance": "3.069976985370874",
        "perihelion_time": "2458859.682726644923",
        "mean_anomaly": "48.35504343224839",
        "mean_motion": ".3433885792570288",
        "equinox": "J2000",
        "orbit_class": {
            "orbit_class_type": "APO",
            "orbit_class_description": "Near-Earth asteroid orbits which cross the Earth’s orbit similar to that of 1862 Apollo",
            "orbit_class_range": "a (semi-major axis) > 1.0 AU; q (perihelion) < 1.017 AU"
        }
    },
    "is_sentry_object": false
}